[{"OBJECT_NAME":"DRUMS","OBJECT_ID":"2021-102G","EPOCH":"2026-03-09T16:02:04.019712","MEAN_MOTION":15.19452308,"ECCENTRICITY":0.00145193,"INCLINATION":97.3433,"RA_OF_ASC_NODE":108.4998,"ARG_OF_PERICENTER":215.993,"MEAN_ANOMALY":144.0328,"EPHEMERIS_TYPE":0,"CLASSIFICATION_TYPE":"U","NORAD_CAT_ID":49401,"ELEMENT_SET_NO":999,"REV_AT_EPOCH":23846,"BSTAR":0.00031687422,"MEAN_MOTION_DOT":6.67e-5,"MEAN_MOTION_DDOT":0},{"OBJECT_NAME":"TRANSPORTER-15 OBJECT L","OBJECT_ID":"2025-276L","EPOCH":"2026-03-09T15:55:29.246880","MEAN_MOTION":15.17958705,"ECCENTRICITY":0.00058754,"INCLINATION":97.4247,"RA_OF_ASC_NODE":143.7845,"ARG_OF_PERICENTER":7.6723,"MEAN_ANOMALY":352.46,"EPHEMERIS_TYPE":0,"CLASSIFICATION_TYPE":"U","NORAD_CAT_ID":66676,"ELEMENT_SET_NO":999,"REV_AT_EPOCH":1530,"BSTAR":0.00032541658,"MEAN_MOTION_DOT":6.545e-5,"MEAN_MOTION_DDOT":0}]
